[{"OBJECT_NAME":"STARLINK-31719","OBJECT_ID":"2024-071M","EPOCH":"2026-03-09T04:08:13.759872","MEAN_MOTION":15.27581616,"ECCENTRICITY":0.00021382,"INCLINATION":42.999,"RA_OF_ASC_NODE":342.9151,"ARG_OF_PERICENTER":231.8479,"MEAN_ANOMALY":128.218,"EPHEMERIS_TYPE":0,"CLASSIFICATION_TYPE":"U","NORAD_CAT_ID":59495,"ELEMENT_SET_NO":999,"REV_AT_EPOCH":10812,"BSTAR":0.00011079303,"MEAN_MOTION_DOT":2.788e-5,"MEAN_MOTION_DDOT":0},{"OBJECT_NAME":"BANDWAGON-2 OBJECT D","OBJECT_ID":"2024-247D","EPOCH":"2026-03-09T12:32:33.670752","MEAN_MOTION":15.29076102,"ECCENTRICITY":0.00034883,"INCLINATION":44.9954,"RA_OF_ASC_NODE":115.671,"ARG_OF_PERICENTER":351.1453,"MEAN_ANOMALY":8.9368,"EPHEMERIS_TYPE":0,"CLASSIFICATION_TYPE":"U","NORAD_CAT_ID":62380,"ELEMENT_SET_NO":999,"REV_AT_EPOCH":6773,"BSTAR":0.00040119131,"MEAN_MOTION_DOT":0.00011259,"MEAN_MOTION_DDOT":0}]
